[{"OBJECT_NAME":"STARLINK-35507","OBJECT_ID":"2025-253J","EPOCH":"2026-03-09T09:42:59.046048","MEAN_MOTION":15.27588583,"ECCENTRICITY":0.00014804,"INCLINATION":42.9965,"RA_OF_ASC_NODE":213.8756,"ARG_OF_PERICENTER":178.6195,"MEAN_ANOMALY":181.4661,"EPHEMERIS_TYPE":0,"CLASSIFICATION_TYPE":"U","NORAD_CAT_ID":66327,"ELEMENT_SET_NO":999,"REV_AT_EPOCH":2020,"BSTAR":0.0011762822,"MEAN_MOTION_DOT":0.00032257,"MEAN_MOTION_DDOT":0},{"OBJECT_NAME":"OBJECT D","OBJECT_ID":"2026-023D","EPOCH":"2026-03-09T17:19:13.762848","MEAN_MOTION":15.22920595,"ECCENTRICITY":0.00208003,"INCLINATION":96.6418,"RA_OF_ASC_NODE":141.6791,"ARG_OF_PERICENTER":127.3034,"MEAN_ANOMALY":233.0105,"EPHEMERIS_TYPE":0,"CLASSIFICATION_TYPE":"U","NORAD_CAT_ID":67677,"ELEMENT_SET_NO":999,"REV_AT_EPOCH":485,"BSTAR":0.00050428287,"MEAN_MOTION_DOT":0.00011849,"MEAN_MOTION_DDOT":0}]
